{
    "links": {
        "self": "http://www.neowsapp.com/rest/v1/neo/3836129?api_key=iIulBulltgU6a56xZRHN4H3l9WmuAYTsLGpBGhQ2"
    },
    "id": "3836129",
    "neo_reference_id": "3836129",
    "name": "(2018 VO5)",
    "designation": "2018 VO5",
    "nasa_jpl_url": "http://ssd.jpl.nasa.gov/sbdb.cgi?sstr=3836129",
    "absolute_magnitude_h": 26.7,
    "estimated_diameter": {
        "kilometers": {
            "estimated_diameter_min": 0.0121494041,
            "estimated_diameter_max": 0.0271668934
        },
        "meters": {
            "estimated_diameter_min": 12.14940408,
            "estimated_diameter_max": 27.1668934089
        },
        "miles": {
            "estimated_diameter_min": 0.0075492874,
            "estimated_diameter_max": 0.0168807197
        },
        "feet": {
            "estimated_diameter_min": 39.8602508817,
            "estimated_diameter_max": 89.1302305717
        }
    },
    "is_potentially_hazardous_asteroid": false,
    "close_approach_data": [
        {
            "close_approach_date": "1901-10-17",
            "close_approach_date_full": "1901-Oct-17 17:03",
            "epoch_date_close_approach": -2152421820000,
            "relative_velocity": {
                "kilometers_per_second": "14.9692305369",
                "kilometers_per_hour": "53889.2299327691",
                "miles_per_hour": "33484.6717879475"
            },
            "miss_distance": {
                "astronomical": "0.095276997",
                "lunar": "37.062751833",
                "kilometers": "14253235.81119639",
                "miles": "8856550.049394582"
            },
            "orbiting_body": "Mars"
        },
        {
            "close_approach_date": "1905-07-28",
            "close_approach_date_full": "1905-Jul-28 09:10",
            "epoch_date_close_approach": -2033218200000,
            "relative_velocity": {
                "kilometers_per_second": "15.4811909761",
                "kilometers_per_hour": "55732.2875140428",
                "miles_per_hour": "34629.8760944895"
            },
            "miss_distance": {
                "astronomical": "0.1119924995",
                "lunar": "43.5650823055",
                "kilometers": "16753839.381176065",
                "miles": "10410353.056977097"
            },
            "orbiting_body": "Earth"
        },
        {
            "close_approach_date": "2016-12-12",
            "close_approach_date_full": "2016-Dec-12 00:35",
            "epoch_date_close_approach": 1481502900000,
            "relative_velocity": {
                "kilometers_per_second": "3.1896888372",
                "kilometers_per_hour": "11482.8798138016",
                "miles_per_hour": "7135.0149598591"
            },
            "miss_distance": {
                "astronomical": "1.6500345192",
                "lunar": "641.8634279688",
                "kilometers": "246841649.498794104",
                "miles": "153380288.6600584752"
            },
            "orbiting_body": "Juptr"
        },
        {
            "close_approach_date": "2018-11-05",
            "close_approach_date_full": "2018-Nov-05 20:59",
            "epoch_date_close_approach": 1541451540000,
            "relative_velocity": {
                "kilometers_per_second": "12.9906125295",
                "kilometers_per_hour": "46766.2051063138",
                "miles_per_hour": "29058.7011673092"
            },
            "miss_distance": {
                "astronomical": "0.0024745848",
                "lunar": "0.9626134872",
                "kilometers": "370192.615214376",
                "miles": "230027.0245993488"
            },
            "orbiting_body": "Moon"
        },
        {
            "close_approach_date": "2018-11-06",
            "close_approach_date_full": "2018-Nov-06 01:31",
            "epoch_date_close_approach": 1541467860000,
            "relative_velocity": {
                "kilometers_per_second": "12.2154925132",
                "kilometers_per_hour": "43975.7730475196",
                "miles_per_hour": "27324.8352027769"
            },
            "miss_distance": {
                "astronomical": "0.0009422125",
                "lunar": "0.3665206625",
                "kilometers": "140952.983087375",
                "miles": "87584.122360775"
            },
            "orbiting_body": "Earth"
        }
    ],
    "orbital_data": {
        "orbit_id": "7",
        "orbit_determination_date": "2019-07-27 14:01:21",
        "first_observation_date": "2018-11-07",
        "last_observation_date": "2018-11-16",
        "data_arc_in_days": 9,
        "observations_used": 72,
        "orbit_uncertainty": "7",
        "minimum_orbit_intersection": ".000874436",
        "jupiter_tisserand_invariant": "3.266",
        "epoch_osculation": "2459000.5",
        "eccentricity": ".6155614651532687",
        "semi_major_axis": "2.357849048071967",
        "inclination": "3.756651663659778",
        "ascending_node_longitude": "44.16027909471271",
        "orbital_period": "1322.429179386456",
        "perihelion_distance": ".906448033430547",
        "perihelion_argument": "320.1291356300745",
        "aphelion_distance": "3.809250062713387",
        "perihelion_time": "2458400.039959326268",
        "mean_anomaly": "163.461014027862",
        "mean_motion": ".2722262980971298",
        "equinox": "J2000",
        "orbit_class": {
            "orbit_class_type": "APO",
            "orbit_class_description": "Near-Earth asteroid orbits which cross the Earth’s orbit similar to that of 1862 Apollo",
            "orbit_class_range": "a (semi-major axis) > 1.0 AU; q (perihelion) < 1.017 AU"
        }
    },
    "is_sentry_object": false
}